JY1SAT (JO-97)          
1 43803U 18099AX  26068.68634132  .00017774  00000+0  60804-3 0  9996
2 43803  97.4249 131.3625 0004723 256.6795 103.3919 15.30302628398390
STARLINK-35663          
1 66491U 25263G   26068.14023977  .00025893  00000+0  94750-3 0  9993
2 66491  43.0016 353.8950 0000671 289.3507  70.7272 15.27568398 18810
